ONEWEB-0045             
1 45151U 20008W   26002.67595568  .00000226  00000+0  60235-3 0  9995
2 45151  87.8842  54.0012 0001848  98.1763 261.9574 13.11417587288710
ONEWEB-0047             
1 45152U 20008X   26002.68240966 -.00000267  00000+0 -80092-3 0  9996
2 45152  87.8790  69.2601 0001819 101.1180 259.0152 13.10376748286520
ONEWEB-0048             
1 45153U 20008Y   26002.67742994  .00010120  00000+0  28944-1 0  9997
2 45153  87.8789  69.2881 0002008 105.6644 254.4705 13.10322211286130
ONEWEB-0049             
1 45154U 20008Z   26002.68060387 -.00000584  00000+0 -17082-2 0  9995
2 45154  87.8787  69.2764 0002007 112.3811 247.7529 13.10376114286353
ONEWEB-0051             
1 45155U 20008AA  26002.67426229  .00000331  00000+0  89842-3 0  9998
2 45155  87.8827  54.0198 0001785  99.7919 260.3410 13.11415050289392
ONEWEB-0052             
1 45156U 20008AB  26002.67493950 -.00000542  00000+0 -15898-2 0  9999
2 45156  87.8797  69.2403 0002068 112.7441 247.3905 13.10374677286262
ONEWEB-0053             
1 45157U 20008AC  26002.73386745 -.00000373  00000+0 -11039-2 0  9995
2 45157  87.8783  69.2729 0001914  93.8938 266.2408 13.10370336286242
ONEWEB-0054             
1 45158U 20008AD  26002.69238067  .00000303  00000+0  83191-3 0  9994
2 45158  87.8796  69.2527 0001683 102.9378 257.1937 13.10376742286351
